0 COSMOS 1420
1 13648U 82109A   13282.89664310  .00000080  00000-0  38508-4 0  4075
2 13648 073.9969 041.1456 0019343 147.3496 350.9644 14.33438680615735
0 COSMOS 1420
1 13648U 82109A   13285.89787495  .00000088  00000-0  41437-4 0  4093
2 13648 073.9974 035.6453 0019236 140.8542 358.7595 14.33439291616165
0 COSMOS 1420
1 13648U 82109A   13286.99725358  .00000102  00000-0  46462-4 0  4107
2 13648 073.9974 033.6305 0019191 138.4772 272.0800 14.33439561616322
0 COSMOS 1420
1 13648U 82109A   13288.11667251  .00000163  00000-0  68340-4 0  4117
2 13648 073.9974 031.5792 0019152 136.0604 288.8164 14.33439856616486
0 COSMOS 1420
1 13648U 82109A   13289.43940071  .00000133  00000-0  57533-4 0  4127
2 13648 073.9973 029.1552 0019092 133.2589 274.6731 14.33440249616678
0 COSMOS 1420
1 13648U 82109A   13290.97388933  .00000135  00000-0  58126-4 0  4133
2 13648 073.9971 026.3433 0019043 129.9030 273.4129 14.33440952616895
0 COSMOS 1420
1 13648U 82109A   13292.09559653  .00000142  00000-0  60704-4 0  4141
2 13648 073.9970 024.2877 0019057 127.4176 302.0269 14.33441331617057
0 COSMOS 1420
1 13648U 82109A   13293.14347264  .00000155  00000-0  65352-4 0  4150
2 13648 073.9969 022.3673 0019037 125.1614 309.5686 14.33441600617209
0 COSMOS 1420
1 13648U 82109A   13294.54495373  .00000130  00000-0  56632-4 0  4165
2 13648 073.9968 019.7990 0019021 122.0832 341.9426 14.33442304617407
0 COSMOS 1420
1 13648U 82109A   13296.20397339  .00000101  00000-0  45974-4 0  4179
2 13648 073.9968 016.7586 0018988 118.4788 263.3125 14.33443244617648
